[{"OBJECT_NAME":"TUSUR GO (RS78S)","OBJECT_ID":"2024-199AZ","EPOCH":"2026-03-09T22:48:41.341536","MEAN_MOTION":15.7089308,"ECCENTRICITY":0.00036127,"INCLINATION":97.3018,"RA_OF_ASC_NODE":306.7757,"ARG_OF_PERICENTER":269.724,"MEAN_ANOMALY":90.3609,"EPHEMERIS_TYPE":0,"CLASSIFICATION_TYPE":"U","NORAD_CAT_ID":61782,"ELEMENT_SET_NO":999,"REV_AT_EPOCH":11926,"BSTAR":0.0013446465,"MEAN_MOTION_DOT":0.00170473,"MEAN_MOTION_DDOT":0},{"OBJECT_NAME":"STARLINK-11490 [DTC]","OBJECT_ID":"2024-231B","EPOCH":"2026-03-09T13:57:55.550016","MEAN_MOTION":15.69797797,"ECCENTRICITY":9.67e-5,"INCLINATION":53.1568,"RA_OF_ASC_NODE":101.8685,"ARG_OF_PERICENTER":91.5093,"MEAN_ANOMALY":268.6036,"EPHEMERIS_TYPE":0,"CLASSIFICATION_TYPE":"U","NORAD_CAT_ID":62219,"ELEMENT_SET_NO":999,"REV_AT_EPOCH":7339,"BSTAR":0.0015564,"MEAN_MOTION_DOT":0.00193126,"MEAN_MOTION_DDOT":0}]
